{
    "links": {
        "self": "http://www.neowsapp.com/rest/v1/neo/3406339?api_key=iIulBulltgU6a56xZRHN4H3l9WmuAYTsLGpBGhQ2"
    },
    "id": "3406339",
    "neo_reference_id": "3406339",
    "name": "(2008 EL85)",
    "designation": "2008 EL85",
    "nasa_jpl_url": "http://ssd.jpl.nasa.gov/sbdb.cgi?sstr=3406339",
    "absolute_magnitude_h": 25.6,
    "estimated_diameter": {
        "kilometers": {
            "estimated_diameter_min": 0.0201629919,
            "estimated_diameter_max": 0.0450858206
        },
        "meters": {
            "estimated_diameter_min": 20.1629919443,
            "estimated_diameter_max": 45.0858206172
        },
        "miles": {
            "estimated_diameter_min": 0.0125286985,
            "estimated_diameter_max": 0.0280150214
        },
        "feet": {
            "estimated_diameter_min": 66.1515504905,
            "estimated_diameter_max": 147.9193637137
        }
    },
    "is_potentially_hazardous_asteroid": false,
    "close_approach_data": [
        {
            "close_approach_date": "2008-03-09",
            "close_approach_date_full": "2008-Mar-09 01:02",
            "epoch_date_close_approach": 1205024520000,
            "relative_velocity": {
                "kilometers_per_second": "12.6853943141",
                "kilometers_per_hour": "45667.4195308885",
                "miles_per_hour": "28375.9585412901"
            },
            "miss_distance": {
                "astronomical": "0.014641886",
                "lunar": "5.695693654",
                "kilometers": "2190394.95838282",
                "miles": "1361048.314490116"
            },
            "orbiting_body": "Earth"
        }
    ],
    "orbital_data": {
        "orbit_id": "6",
        "orbit_determination_date": "2017-04-06 09:03:58",
        "first_observation_date": "2008-03-14",
        "last_observation_date": "2008-03-15",
        "data_arc_in_days": 1,
        "observations_used": 11,
        "orbit_uncertainty": "9",
        "minimum_orbit_intersection": ".00390022",
        "jupiter_tisserand_invariant": "3.749",
        "epoch_osculation": "2454540.5",
        "eccentricity": ".5558117555710069",
        "semi_major_axis": "1.894708860542418",
        "inclination": "2.262578468090569",
        "ascending_node_longitude": "161.4844343626765",
        "orbital_period": "952.6034630637696",
        "perihelion_distance": ".8416074024683946",
        "perihelion_argument": "310.7926430143186",
        "aphelion_distance": "2.947810318616442",
        "perihelion_time": "2454495.190645149658",
        "mean_anomaly": "17.12293559553352",
        "mean_motion": ".3779117061386336",
        "equinox": "J2000",
        "orbit_class": {
            "orbit_class_type": "APO",
            "orbit_class_description": "Near-Earth asteroid orbits which cross the Earth’s orbit similar to that of 1862 Apollo",
            "orbit_class_range": "a (semi-major axis) > 1.0 AU; q (perihelion) < 1.017 AU"
        }
    },
    "is_sentry_object": false
}